CCSDS_OMM_VERS = 2.0
CREATION_DATE  = 
ORIGINATOR     = 

OBJECT_NAME    = STARLINK-35420
OBJECT_ID      = 2025-245AC
CENTER_NAME    = EARTH
REF_FRAME      = TEME
TIME_SYSTEM    = UTC
MEAN_ELEMENT_THEORY = SGP/SGP4

EPOCH          = 2025-11-18T20:00:01.999008
MEAN_MOTION    = 15.58195710
ECCENTRICITY   = .0001069
INCLINATION    = 53.1594
RA_OF_ASC_NODE = 82.5530
ARG_OF_PERICENTER = 69.8956
MEAN_ANOMALY   = 201.8759

EPHEMERIS_TYPE = 0
CLASSIFICATION_TYPE = U
NORAD_CAT_ID   = 66260
ELEMENT_SET_NO = 999
REV_AT_EPOCH   = 426
BSTAR          = -.29284E-1
MEAN_MOTION_DOT = -.1978005E-1
MEAN_MOTION_DDOT = 0

CCSDS_OMM_VERS = 2.0
CREATION_DATE  = 
ORIGINATOR     = 

OBJECT_NAME    = STARLINK-35536
OBJECT_ID      = 2025-245AD
CENTER_NAME    = EARTH
REF_FRAME      = TEME
TIME_SYSTEM    = UTC
MEAN_ELEMENT_THEORY = SGP/SGP4

EPOCH          = 2025-11-18T20:00:01.999008
MEAN_MOTION    = 15.58205358
ECCENTRICITY   = .0000918
INCLINATION    = 53.1594
RA_OF_ASC_NODE = 82.5450
ARG_OF_PERICENTER = 65.4493
MEAN_ANOMALY   = 210.1537

EPHEMERIS_TYPE = 0
CLASSIFICATION_TYPE = U
NORAD_CAT_ID   = 66261
ELEMENT_SET_NO = 999
REV_AT_EPOCH   = 426
BSTAR          = -.29572E-1
MEAN_MOTION_DOT = -.1995584E-1
MEAN_MOTION_DDOT = 0

CCSDS_OMM_VERS = 2.0
CREATION_DATE  = 
ORIGINATOR     = 

OBJECT_NAME    = STARLINK-35487
OBJECT_ID      = 2025-245AE
CENTER_NAME    = EARTH
REF_FRAME      = TEME
TIME_SYSTEM    = UTC
MEAN_ELEMENT_THEORY = SGP/SGP4

EPOCH          = 2025-11-18T20:00:01.999008
MEAN_MOTION    = 15.58205584
ECCENTRICITY   = .000093
INCLINATION    = 53.1594
RA_OF_ASC_NODE = 82.5408
ARG_OF_PERICENTER = 62.7915
MEAN_ANOMALY   = 214.7275

EPHEMERIS_TYPE = 0
CLASSIFICATION_TYPE = U
NORAD_CAT_ID   = 66262
ELEMENT_SET_NO = 999
REV_AT_EPOCH   = 421
BSTAR          = -.29558E-1
MEAN_MOTION_DOT = -.1994756E-1
MEAN_MOTION_DDOT = 0

CCSDS_OMM_VERS = 2.0
CREATION_DATE  = 
ORIGINATOR     = 

OBJECT_NAME    = STARLINK-35801
OBJECT_ID      = 2025-247A
CENTER_NAME    = EARTH
REF_FRAME      = TEME
TIME_SYSTEM    = UTC
MEAN_ELEMENT_THEORY = SGP/SGP4

EPOCH          = 2025-11-18T20:00:01.999008
MEAN_MOTION    = 15.50921643
ECCENTRICITY   = .0001149
INCLINATION    = 53.1594
RA_OF_ASC_NODE = 350.4697
ARG_OF_PERICENTER = 101.4824
MEAN_ANOMALY   = 242.8253

EPHEMERIS_TYPE = 0
CLASSIFICATION_TYPE = U
NORAD_CAT_ID   = 66265
ELEMENT_SET_NO = 999
REV_AT_EPOCH   = 377
BSTAR          = -.38339E-1
MEAN_MOTION_DOT = -.201581E-1
MEAN_MOTION_DDOT = 0

CCSDS_OMM_VERS = 2.0
CREATION_DATE  = 
ORIGINATOR     = 

OBJECT_NAME    = STARLINK-35056
OBJECT_ID      = 2025-247B
CENTER_NAME    = EARTH
REF_FRAME      = TEME
TIME_SYSTEM    = UTC
MEAN_ELEMENT_THEORY = SGP/SGP4

EPOCH          = 2025-11-18T20:00:01.999008
MEAN_MOTION    = 15.50944940
ECCENTRICITY   = .0000951
INCLINATION    = 53.1593
RA_OF_ASC_NODE = 350.4656
ARG_OF_PERICENTER = 89.1258
MEAN_ANOMALY   = 257.0945

EPHEMERIS_TYPE = 0
CLASSIFICATION_TYPE = U
NORAD_CAT_ID   = 66266
ELEMENT_SET_NO = 999
REV_AT_EPOCH   = 404
BSTAR          = -.3906E-1
MEAN_MOTION_DOT = -.2051029E-1
MEAN_MOTION_DDOT = 0

CCSDS_OMM_VERS = 2.0
CREATION_DATE  = 
ORIGINATOR     = 

OBJECT_NAME    = STARLINK-35550
OBJECT_ID      = 2025-247C
CENTER_NAME    = EARTH
REF_FRAME      = TEME
TIME_SYSTEM    = UTC
MEAN_ELEMENT_THEORY = SGP/SGP4

EPOCH          = 2025-11-18T20:00:01.999008
MEAN_MOTION    = 15.61019653
ECCENTRICITY   = .0001274
INCLINATION    = 53.1594
RA_OF_ASC_NODE = 349.4356
ARG_OF_PERICENTER = 71.6265
MEAN_ANOMALY   = 54.5092

EPHEMERIS_TYPE = 0
CLASSIFICATION_TYPE = U
NORAD_CAT_ID   = 66267
ELEMENT_SET_NO = 999
REV_AT_EPOCH   = 372
BSTAR          = -.27123E-1
MEAN_MOTION_DOT = -.2034607E-1
MEAN_MOTION_DDOT = 0

CCSDS_OMM_VERS = 2.0
CREATION_DATE  = 
ORIGINATOR     = 

OBJECT_NAME    = STARLINK-35069
OBJECT_ID      = 2025-247D
CENTER_NAME    = EARTH
REF_FRAME      = TEME
TIME_SYSTEM    = UTC
MEAN_ELEMENT_THEORY = SGP/SGP4

EPOCH          = 2025-11-18T20:00:01.999008
MEAN_MOTION    = 15.50938424
ECCENTRICITY   = .0000956
INCLINATION    = 53.1596
RA_OF_ASC_NODE = 350.4531
ARG_OF_PERICENTER = 91.0921
MEAN_ANOMALY   = 260.8795

EPHEMERIS_TYPE = 0
CLASSIFICATION_TYPE = U
NORAD_CAT_ID   = 66268
ELEMENT_SET_NO = 999
REV_AT_EPOCH   = 399
BSTAR          = -.38853E-1
MEAN_MOTION_DOT = -.2040891E-1
MEAN_MOTION_DDOT = 0

CCSDS_OMM_VERS = 2.0
CREATION_DATE  = 
ORIGINATOR     = 

OBJECT_NAME    = STARLINK-34910
OBJECT_ID      = 2025-247E
CENTER_NAME    = EARTH
REF_FRAME      = TEME
TIME_SYSTEM    = UTC
MEAN_ELEMENT_THEORY = SGP/SGP4

EPOCH          = 2025-11-18T20:00:01.999008
MEAN_MOTION    = 15.61016585
ECCENTRICITY   = .0001375
INCLINATION    = 53.1598
RA_OF_ASC_NODE = 349.4391
ARG_OF_PERICENTER = 77.5293
MEAN_ANOMALY   = 46.6914

EPHEMERIS_TYPE = 0
CLASSIFICATION_TYPE = U
NORAD_CAT_ID   = 66269
ELEMENT_SET_NO = 999
REV_AT_EPOCH   = 404
BSTAR          = -.27084E-1
MEAN_MOTION_DOT = -.203191E-1
MEAN_MOTION_DDOT = 0

CCSDS_OMM_VERS = 2.0
CREATION_DATE  = 
ORIGINATOR     = 

OBJECT_NAME    = STARLINK-35757
OBJECT_ID      = 2025-247F
CENTER_NAME    = EARTH
REF_FRAME      = TEME
TIME_SYSTEM    = UTC
MEAN_ELEMENT_THEORY = SGP/SGP4

EPOCH          = 2025-11-18T20:00:01.999008
MEAN_MOTION    = 15.50938406
ECCENTRICITY   = .0000938
INCLINATION    = 53.1597
RA_OF_ASC_NODE = 350.4499
ARG_OF_PERICENTER = 90.7259
MEAN_ANOMALY   = 263.1623

EPHEMERIS_TYPE = 0
CLASSIFICATION_TYPE = U
NORAD_CAT_ID   = 66270
ELEMENT_SET_NO = 999
REV_AT_EPOCH   = 409
BSTAR          = -.38848E-1
MEAN_MOTION_DOT = -.2040687E-1
MEAN_MOTION_DDOT = 0

CCSDS_OMM_VERS = 2.0
CREATION_DATE  = 
ORIGINATOR     = 

OBJECT_NAME    = STARLINK-35745
OBJECT_ID      = 2025-247G
CENTER_NAME    = EARTH
REF_FRAME      = TEME
TIME_SYSTEM    = UTC
MEAN_ELEMENT_THEORY = SGP/SGP4

EPOCH          = 2025-11-18T20:00:01.999008
MEAN_MOTION    = 15.50936116
ECCENTRICITY   = .0000923
INCLINATION    = 53.1597
RA_OF_ASC_NODE = 350.4461
ARG_OF_PERICENTER = 90.2038
MEAN_ANOMALY   = 265.6020

EPHEMERIS_TYPE = 0
CLASSIFICATION_TYPE = U
NORAD_CAT_ID   = 66271
ELEMENT_SET_NO = 999
REV_AT_EPOCH   = 409
BSTAR          = -.3879E-1
MEAN_MOTION_DOT = -.203777E-1
MEAN_MOTION_DDOT = 0

CCSDS_OMM_VERS = 2.0
CREATION_DATE  = 
ORIGINATOR     = 

OBJECT_NAME    = STARLINK-35741
OBJECT_ID      = 2025-247H
CENTER_NAME    = EARTH
REF_FRAME      = TEME
TIME_SYSTEM    = UTC
MEAN_ELEMENT_THEORY = SGP/SGP4

EPOCH          = 2025-11-18T20:00:01.999008
MEAN_MOTION    = 15.50912713
ECCENTRICITY   = .00009
INCLINATION    = 53.1595
RA_OF_ASC_NODE = 350.4412
ARG_OF_PERICENTER = 103.4991
MEAN_ANOMALY   = 254.2285

EPHEMERIS_TYPE = 0
CLASSIFICATION_TYPE = U
NORAD_CAT_ID   = 66272
ELEMENT_SET_NO = 999
REV_AT_EPOCH   = 409
BSTAR          = -.38062E-1
MEAN_MOTION_DOT = -.2002113E-1
MEAN_MOTION_DDOT = 0

CCSDS_OMM_VERS = 2.0
CREATION_DATE  = 
ORIGINATOR     = 

OBJECT_NAME    = STARLINK-35730
OBJECT_ID      = 2025-247J
CENTER_NAME    = EARTH
REF_FRAME      = TEME
TIME_SYSTEM    = UTC
MEAN_ELEMENT_THEORY = SGP/SGP4

EPOCH          = 2025-11-18T20:00:01.999008
MEAN_MOTION    = 15.50935364
ECCENTRICITY   = .0000937
INCLINATION    = 53.1596
RA_OF_ASC_NODE = 350.4377
ARG_OF_PERICENTER = 89.9783
MEAN_ANOMALY   = 269.6603

EPHEMERIS_TYPE = 0
CLASSIFICATION_TYPE = U
NORAD_CAT_ID   = 66273
ELEMENT_SET_NO = 999
REV_AT_EPOCH   = 409
BSTAR          = -.38761E-1
MEAN_MOTION_DOT = -.2036407E-1
MEAN_MOTION_DDOT = 0

