STARLINK-35420          
1 66260U 25245AC  25322.83335647 -.01978005  00000+0 -29284-1 0  9998
2 66260  53.1594  82.5530 0001069  69.8956 201.8759 15.58195710  4267
STARLINK-35536          
1 66261U 25245AD  25322.83335647 -.01995584  00000+0 -29572-1 0  9990
2 66261  53.1594  82.5450 0000918  65.4493 210.1537 15.58205358  4266
STARLINK-35487          
1 66262U 25245AE  25322.83335647 -.01994756  00000+0 -29558-1 0  9995
2 66262  53.1594  82.5408 0000930  62.7915 214.7275 15.58205584  4218
STARLINK-35801          
1 66265U 25247A   25322.83335647 -.02015810  00000+0 -38339-1 0  9993
2 66265  53.1594 350.4697 0001149 101.4824 242.8253 15.50921643  3772
STARLINK-35056          
1 66266U 25247B   25322.83335647 -.02051029  00000+0 -39060-1 0  9998
2 66266  53.1593 350.4656 0000951  89.1258 257.0945 15.50944940  4042
STARLINK-35550          
1 66267U 25247C   25322.83335647 -.02034607  00000+0 -27123-1 0  9999
2 66267  53.1594 349.4356 0001274  71.6265  54.5092 15.61019653  3725
STARLINK-35069          
1 66268U 25247D   25322.83335647 -.02040891  00000+0 -38853-1 0  9994
2 66268  53.1596 350.4531 0000956  91.0921 260.8795 15.50938424  3991
STARLINK-34910          
1 66269U 25247E   25322.83335647 -.02031910  00000+0 -27084-1 0  9991
2 66269  53.1598 349.4391 0001375  77.5293  46.6914 15.61016585  4040
STARLINK-35757          
1 66270U 25247F   25322.83335647 -.02040687  00000+0 -38848-1 0  9994
2 66270  53.1597 350.4499 0000938  90.7259 263.1623 15.50938406  4096
STARLINK-35745          
1 66271U 25247G   25322.83335647 -.02037770  00000+0 -38790-1 0  9990
2 66271  53.1597 350.4461 0000923  90.2038 265.6020 15.50936116  4094
STARLINK-35741          
1 66272U 25247H   25322.83335647 -.02002113  00000+0 -38062-1 0  9996
2 66272  53.1595 350.4412 0000900 103.4991 254.2285 15.50912713  4093
STARLINK-35730          
1 66273U 25247J   25322.83335647 -.02036407  00000+0 -38761-1 0  9996
2 66273  53.1596 350.4377 0000937  89.9783 269.6603 15.50935364  4093
